{"fetched_at":"2026-07-08T07:04:21.852Z","source":"https://celestrak.org/NORAD/elements/gp.php?NAME=STRIX&FORMAT=JSON","constellation":"synspective","records":[{"OBJECT_NAME":"STRIX-1","OBJECT_ID":"2022-113A","EPOCH":"2026-07-07T20:14:58.665984","CLASSIFICATION_TYPE":"U","MEAN_MOTION":15.40762213,"ECCENTRICITY":0.0005144,"INCLINATION":97.4481,"RA_OF_ASC_NODE":251.2474,"ARG_OF_PERICENTER":151.4173,"MEAN_ANOMALY":208.7356,"EPHEMERIS_TYPE":0,"NORAD_CAT_ID":53815,"ELEMENT_SET_NO":999,"REV_AT_EPOCH":21062,"BSTAR":0.00039359,"MEAN_MOTION_DOT":0.00016037,"MEAN_MOTION_DDOT":0},{"OBJECT_NAME":"STRIX-3","OBJECT_ID":"2024-047A","EPOCH":"2026-07-07T20:32:04.000704","CLASSIFICATION_TYPE":"U","MEAN_MOTION":15.19729923,"ECCENTRICITY":0.0012894,"INCLINATION":97.6631,"RA_OF_ASC_NODE":164.8406,"ARG_OF_PERICENTER":1.1671,"MEAN_ANOMALY":358.9591,"EPHEMERIS_TYPE":0,"NORAD_CAT_ID":59224,"ELEMENT_SET_NO":999,"REV_AT_EPOCH":12788,"BSTAR":0.00027014,"MEAN_MOTION_DOT":0.00005713,"MEAN_MOTION_DDOT":0},{"OBJECT_NAME":"STRIX-4","OBJECT_ID":"2024-137A","EPOCH":"2026-07-07T19:26:57.613920","CLASSIFICATION_TYPE":"U","MEAN_MOTION":15.33154217,"ECCENTRICITY":0.0015814,"INCLINATION":43.0142,"RA_OF_ASC_NODE":167.623,"ARG_OF_PERICENTER":79.4946,"MEAN_ANOMALY":280.7689,"EPHEMERIS_TYPE":0,"NORAD_CAT_ID":60352,"ELEMENT_SET_NO":999,"REV_AT_EPOCH":10718,"BSTAR":0.00029081,"MEAN_MOTION_DOT":0.00009277,"MEAN_MOTION_DDOT":0},{"OBJECT_NAME":"STRIX-2","OBJECT_ID":"2024-248A","EPOCH":"2026-07-07T21:28:03.204192","CLASSIFICATION_TYPE":"U","MEAN_MOTION":15.0914058,"ECCENTRICITY":0.0013641,"INCLINATION":97.6291,"RA_OF_ASC_NODE":144.4177,"ARG_OF_PERICENTER":264.2163,"MEAN_ANOMALY":95.7511,"EPHEMERIS_TYPE":0,"NORAD_CAT_ID":62406,"ELEMENT_SET_NO":999,"REV_AT_EPOCH":8471,"BSTAR":0.00028752,"MEAN_MOTION_DOT":0.00004507,"MEAN_MOTION_DDOT":0},{"OBJECT_NAME":"STRIX-5","OBJECT_ID":"2025-229A","EPOCH":"2026-07-07T08:25:06.017376","CLASSIFICATION_TYPE":"U","MEAN_MOTION":15.04555059,"ECCENTRICITY":0.00369159,"INCLINATION":41.9263,"RA_OF_ASC_NODE":175.5748,"ARG_OF_PERICENTER":186.9788,"MEAN_ANOMALY":173.0528,"EPHEMERIS_TYPE":0,"NORAD_CAT_ID":65971,"ELEMENT_SET_NO":999,"REV_AT_EPOCH":4001,"BSTAR":0.00016915466,"MEAN_MOTION_DOT":0.00002251,"MEAN_MOTION_DDOT":0},{"OBJECT_NAME":"STRIX-6","OBJECT_ID":"2026-056A","EPOCH":"2026-07-07T05:50:20.902272","CLASSIFICATION_TYPE":"U","MEAN_MOTION":15.00304812,"ECCENTRICITY":0.0016556,"INCLINATION":50.2819,"RA_OF_ASC_NODE":254.9806,"ARG_OF_PERICENTER":320.7165,"MEAN_ANOMALY":39.2582,"EPHEMERIS_TYPE":0,"NORAD_CAT_ID":68291,"ELEMENT_SET_NO":999,"REV_AT_EPOCH":1628,"BSTAR":0.00016898251,"MEAN_MOTION_DOT":0.00001881,"MEAN_MOTION_DDOT":0},{"OBJECT_NAME":"STRIX-7","OBJECT_ID":"2026-112A","EPOCH":"2026-07-07T17:32:08.508192","CLASSIFICATION_TYPE":"U","MEAN_MOTION":15.01571839,"ECCENTRICITY":0.0023834,"INCLINATION":44.907,"RA_OF_ASC_NODE":84.541,"ARG_OF_PERICENTER":166.3984,"MEAN_ANOMALY":193.7534,"EPHEMERIS_TYPE":0,"NORAD_CAT_ID":69177,"ELEMENT_SET_NO":999,"REV_AT_EPOCH":696,"BSTAR":0.00023117,"MEAN_MOTION_DOT":0.00002825,"MEAN_MOTION_DDOT":0},{"OBJECT_NAME":"STRIX-8","OBJECT_ID":"2026-146A","EPOCH":"2026-07-07T18:47:42.067392","CLASSIFICATION_TYPE":"U","MEAN_MOTION":15.04392357,"ECCENTRICITY":0.0008398,"INCLINATION":41.9897,"RA_OF_ASC_NODE":54.1514,"ARG_OF_PERICENTER":334.2972,"MEAN_ANOMALY":25.7437,"EPHEMERIS_TYPE":0,"NORAD_CAT_ID":69701,"ELEMENT_SET_NO":999,"REV_AT_EPOCH":166,"BSTAR":0.00023951,"MEAN_MOTION_DOT":0.00003213,"MEAN_MOTION_DDOT":0}]}
