STRIX-1                 
1 53815U 22113A   26188.84373456  .00016037  00000+0  39359-3 0  9994
2 53815  97.4481 251.2474 0005144 151.4173 208.7356 15.40762213210621
STRIX-3                 
1 59224U 24047A   26188.85560186  .00005713  00000+0  27014-3 0  9995
2 59224  97.6631 164.8406 0012894   1.1671 358.9591 15.19729923127889
STRIX-4                 
1 60352U 24137A   26188.81038905  .00009277  00000+0  29081-3 0  9999
2 60352  43.0142 167.6230 0015814  79.4946 280.7689 15.33154217107184
STRIX-2                 
1 62406U 24248A   26188.89448153  .00004507  00000+0  28752-3 0  9997
2 62406  97.6291 144.4177 0013641 264.2163  95.7511 15.09140580 84712
STRIX-5                 
1 65971U 25229A   26188.35076409  .00002251  00000+0  16915-3 0  9991
2 65971  41.9263 175.5748 0036915 186.9788 173.0528 15.04555059 40013
STRIX-6                 
1 68291U 26056A   26188.24329748  .00001881  00000+0  16898-3 0  9991
2 68291  50.2819 254.9806 0016556 320.7165  39.2582 15.00304812 16284
STRIX-7                 
1 69177U 26112A   26188.73065403  .00002825  00000+0  23117-3 0  9998
2 69177  44.9070  84.5410 0023834 166.3984 193.7534 15.01571839  6968
STRIX-8                 
1 69701U 26146A   26188.78312578  .00003213  00000+0  23951-3 0  9999
2 69701  41.9897  54.1514 0008398 334.2972  25.7437 15.04392357  1661
